ARIANE 40 R/B           
1 20443U 90005H   25337.14894432  .00000451  00000+0  15713-3 0  9991
2 20443  98.3258  35.5974 0011025 131.9588 228.2541 14.39786377878919
DELTA 2 R/B(1)          
1 20453U 90008B   25337.31487011  .00041182  00000+0  68320-3 0  9993
2 20453  35.6064  81.3467 0112535  92.3388 269.0234 15.44152302911171
COSMOS 2058             
1 20465U 90010A   25337.21801997  .00006169  00000+0  37442-3 0  9998
2 20465  82.4629 142.3971 0008571 313.4020  46.6495 15.10327043927672
SL-14 R/B               
1 20466U 90010B   25337.16733682  .00000637  00000+0  74530-4 0  9992
2 20466  82.5023 358.0379 0018304 256.9949 102.9222 14.83456779914179
SL-14 R/B               
1 20511U 90018B   25337.29493736  .00000775  00000+0  94488-4 0  9995
2 20511  82.5202 313.1930 0017651  52.7324 307.5497 14.82030585908304
HST                     
1 20580U 90037B   25337.32134242  .00010177  00000+0  35555-3 0  9996
2 20580  28.4702 336.5846 0002084 133.3570 226.7199 15.27838155758552
SL-16 R/B               
1 20625U 90046B   25337.20243224  .00000315  00000+0  18728-3 0  9990
2 20625  70.9980 140.5507 0011960  91.0028 269.2466 14.14998043834743
COSMOS 2084             
1 20663U 90055A   25337.33225918  .00004468  00000+0  32435-3 0  9990
2 20663  62.7910 304.0453 0033195 173.5136 186.6401 15.04920289921817
SL-6 R/B(2)             
1 20666U 90055D   25337.05399341  .00003031  00000+0  23833-3 0  9991
2 20666  62.7832 222.3244 0011864 301.1596  58.8339 15.03005048923662
SL-8 R/B                
1 20775U 90078B   25337.09992564  .00032447  00000+0  10051-2 0  9997
2 20775  82.9044 337.9364 0375180 338.3087  20.2582 14.85319904794947
SL-8 R/B                
1 21088U 91006B   25337.24532088  .00000092  00000+0  76761-4 0  9998
2 21088  82.9429 241.7744 0021530 307.9175 162.4784 13.77488347750799
OKEAN-3                 
1 21397U 91039A   25337.30171310  .00004664  00000+0  33501-3 0  9994
2 21397  82.5187  70.1817 0013170 300.0902  59.9018 15.04017401850542
