CCSDS_OMM_VERS = 2.0
CREATION_DATE  = 
ORIGINATOR     = 

OBJECT_NAME    = ARIANE 40 R/B
OBJECT_ID      = 1990-005H
CENTER_NAME    = EARTH
REF_FRAME      = TEME
TIME_SYSTEM    = UTC
MEAN_ELEMENT_THEORY = SGP/SGP4

EPOCH          = 2025-12-03T03:34:28.789248
MEAN_MOTION    = 14.39786377
ECCENTRICITY   = .0011025
INCLINATION    = 98.3258
RA_OF_ASC_NODE = 35.5974
ARG_OF_PERICENTER = 131.9588
MEAN_ANOMALY   = 228.2541

EPHEMERIS_TYPE = 0
CLASSIFICATION_TYPE = U
NORAD_CAT_ID   = 20443
ELEMENT_SET_NO = 999
REV_AT_EPOCH   = 87891
BSTAR          = .15712524E-3
MEAN_MOTION_DOT = .451E-5
MEAN_MOTION_DDOT = 0

CCSDS_OMM_VERS = 2.0
CREATION_DATE  = 
ORIGINATOR     = 

OBJECT_NAME    = DELTA 2 R/B(1)
OBJECT_ID      = 1990-008B
CENTER_NAME    = EARTH
REF_FRAME      = TEME
TIME_SYSTEM    = UTC
MEAN_ELEMENT_THEORY = SGP/SGP4

EPOCH          = 2025-12-03T07:33:24.777504
MEAN_MOTION    = 15.44152302
ECCENTRICITY   = .01125359
INCLINATION    = 35.6064
RA_OF_ASC_NODE = 81.3467
ARG_OF_PERICENTER = 92.3388
MEAN_ANOMALY   = 269.0234

EPHEMERIS_TYPE = 0
CLASSIFICATION_TYPE = U
NORAD_CAT_ID   = 20453
ELEMENT_SET_NO = 999
REV_AT_EPOCH   = 91117
BSTAR          = .68319595E-3
MEAN_MOTION_DOT = .41182E-3
MEAN_MOTION_DDOT = 0

CCSDS_OMM_VERS = 2.0
CREATION_DATE  = 
ORIGINATOR     = 

OBJECT_NAME    = COSMOS 2058
OBJECT_ID      = 1990-010A
CENTER_NAME    = EARTH
REF_FRAME      = TEME
TIME_SYSTEM    = UTC
MEAN_ELEMENT_THEORY = SGP/SGP4

EPOCH          = 2025-12-03T05:13:56.925408
MEAN_MOTION    = 15.10327043
ECCENTRICITY   = .00085714
INCLINATION    = 82.4629
RA_OF_ASC_NODE = 142.3971
ARG_OF_PERICENTER = 313.4020
MEAN_ANOMALY   = 46.6495

EPHEMERIS_TYPE = 0
CLASSIFICATION_TYPE = U
NORAD_CAT_ID   = 20465
ELEMENT_SET_NO = 999
REV_AT_EPOCH   = 92767
BSTAR          = .37441864E-3
MEAN_MOTION_DOT = .6169E-4
MEAN_MOTION_DDOT = 0

CCSDS_OMM_VERS = 2.0
CREATION_DATE  = 
ORIGINATOR     = 

OBJECT_NAME    = SL-14 R/B
OBJECT_ID      = 1990-010B
CENTER_NAME    = EARTH
REF_FRAME      = TEME
TIME_SYSTEM    = UTC
MEAN_ELEMENT_THEORY = SGP/SGP4

EPOCH          = 2025-12-03T04:00:57.901248
MEAN_MOTION    = 14.83456779
ECCENTRICITY   = .00183049
INCLINATION    = 82.5023
RA_OF_ASC_NODE = 358.0379
ARG_OF_PERICENTER = 256.9949
MEAN_ANOMALY   = 102.9222

EPHEMERIS_TYPE = 0
CLASSIFICATION_TYPE = U
NORAD_CAT_ID   = 20466
ELEMENT_SET_NO = 999
REV_AT_EPOCH   = 91417
BSTAR          = .74530219E-4
MEAN_MOTION_DOT = .637E-5
MEAN_MOTION_DDOT = 0

CCSDS_OMM_VERS = 2.0
CREATION_DATE  = 
ORIGINATOR     = 

OBJECT_NAME    = SL-14 R/B
OBJECT_ID      = 1990-018B
CENTER_NAME    = EARTH
REF_FRAME      = TEME
TIME_SYSTEM    = UTC
MEAN_ELEMENT_THEORY = SGP/SGP4

EPOCH          = 2025-12-03T07:04:42.587904
MEAN_MOTION    = 14.82030585
ECCENTRICITY   = .00176512
INCLINATION    = 82.5202
RA_OF_ASC_NODE = 313.1930
ARG_OF_PERICENTER = 52.7324
MEAN_ANOMALY   = 307.5497

EPHEMERIS_TYPE = 0
CLASSIFICATION_TYPE = U
NORAD_CAT_ID   = 20511
ELEMENT_SET_NO = 999
REV_AT_EPOCH   = 90830
BSTAR          = .94488317E-4
MEAN_MOTION_DOT = .775E-5
MEAN_MOTION_DDOT = 0

CCSDS_OMM_VERS = 2.0
CREATION_DATE  = 
ORIGINATOR     = 

OBJECT_NAME    = HST
OBJECT_ID      = 1990-037B
CENTER_NAME    = EARTH
REF_FRAME      = TEME
TIME_SYSTEM    = UTC
MEAN_ELEMENT_THEORY = SGP/SGP4

EPOCH          = 2025-12-03T07:42:43.985088
MEAN_MOTION    = 15.27838155
ECCENTRICITY   = .00020841
INCLINATION    = 28.4702
RA_OF_ASC_NODE = 336.5846
ARG_OF_PERICENTER = 133.3570
MEAN_ANOMALY   = 226.7199

EPHEMERIS_TYPE = 0
CLASSIFICATION_TYPE = U
NORAD_CAT_ID   = 20580
ELEMENT_SET_NO = 999
REV_AT_EPOCH   = 75855
BSTAR          = .35555436E-3
MEAN_MOTION_DOT = .10177E-3
MEAN_MOTION_DDOT = 0

CCSDS_OMM_VERS = 2.0
CREATION_DATE  = 
ORIGINATOR     = 

OBJECT_NAME    = SL-16 R/B
OBJECT_ID      = 1990-046B
CENTER_NAME    = EARTH
REF_FRAME      = TEME
TIME_SYSTEM    = UTC
MEAN_ELEMENT_THEORY = SGP/SGP4

EPOCH          = 2025-12-03T04:51:30.145536
MEAN_MOTION    = 14.14998043
ECCENTRICITY   = .00119609
INCLINATION    = 70.9980
RA_OF_ASC_NODE = 140.5507
ARG_OF_PERICENTER = 91.0028
MEAN_ANOMALY   = 269.2466

EPHEMERIS_TYPE = 0
CLASSIFICATION_TYPE = U
NORAD_CAT_ID   = 20625
ELEMENT_SET_NO = 999
REV_AT_EPOCH   = 83474
BSTAR          = .18727525E-3
MEAN_MOTION_DOT = .315E-5
MEAN_MOTION_DDOT = 0

CCSDS_OMM_VERS = 2.0
CREATION_DATE  = 
ORIGINATOR     = 

OBJECT_NAME    = COSMOS 2084
OBJECT_ID      = 1990-055A
CENTER_NAME    = EARTH
REF_FRAME      = TEME
TIME_SYSTEM    = UTC
MEAN_ELEMENT_THEORY = SGP/SGP4

EPOCH          = 2025-12-03T07:58:27.193152
MEAN_MOTION    = 15.04920289
ECCENTRICITY   = .00331953
INCLINATION    = 62.7910
RA_OF_ASC_NODE = 304.0453
ARG_OF_PERICENTER = 173.5136
MEAN_ANOMALY   = 186.6401

EPHEMERIS_TYPE = 0
CLASSIFICATION_TYPE = U
NORAD_CAT_ID   = 20663
ELEMENT_SET_NO = 999
REV_AT_EPOCH   = 92181
BSTAR          = .32435205E-3
MEAN_MOTION_DOT = .4468E-4
MEAN_MOTION_DDOT = 0

CCSDS_OMM_VERS = 2.0
CREATION_DATE  = 
ORIGINATOR     = 

OBJECT_NAME    = SL-6 R/B(2)
OBJECT_ID      = 1990-055D
CENTER_NAME    = EARTH
REF_FRAME      = TEME
TIME_SYSTEM    = UTC
MEAN_ELEMENT_THEORY = SGP/SGP4

EPOCH          = 2025-12-03T01:17:45.030624
MEAN_MOTION    = 15.03005048
ECCENTRICITY   = .00118644
INCLINATION    = 62.7832
RA_OF_ASC_NODE = 222.3244
ARG_OF_PERICENTER = 301.1596
MEAN_ANOMALY   = 58.8339

EPHEMERIS_TYPE = 0
CLASSIFICATION_TYPE = U
NORAD_CAT_ID   = 20666
ELEMENT_SET_NO = 999
REV_AT_EPOCH   = 92366
BSTAR          = .23833106E-3
MEAN_MOTION_DOT = .3031E-4
MEAN_MOTION_DDOT = 0

CCSDS_OMM_VERS = 2.0
CREATION_DATE  = 
ORIGINATOR     = 

OBJECT_NAME    = SL-8 R/B
OBJECT_ID      = 1990-078B
CENTER_NAME    = EARTH
REF_FRAME      = TEME
TIME_SYSTEM    = UTC
MEAN_ELEMENT_THEORY = SGP/SGP4

EPOCH          = 2025-12-03T02:23:53.575296
MEAN_MOTION    = 14.85319904
ECCENTRICITY   = .03751803
INCLINATION    = 82.9044
RA_OF_ASC_NODE = 337.9364
ARG_OF_PERICENTER = 338.3087
MEAN_ANOMALY   = 20.2582

EPHEMERIS_TYPE = 0
CLASSIFICATION_TYPE = U
NORAD_CAT_ID   = 20775
ELEMENT_SET_NO = 999
REV_AT_EPOCH   = 79494
BSTAR          = .10050699E-2
MEAN_MOTION_DOT = .32447E-3
MEAN_MOTION_DDOT = 0

CCSDS_OMM_VERS = 2.0
CREATION_DATE  = 
ORIGINATOR     = 

OBJECT_NAME    = SL-8 R/B
OBJECT_ID      = 1991-006B
CENTER_NAME    = EARTH
REF_FRAME      = TEME
TIME_SYSTEM    = UTC
MEAN_ELEMENT_THEORY = SGP/SGP4

EPOCH          = 2025-12-03T05:53:15.724032
MEAN_MOTION    = 13.77488347
ECCENTRICITY   = .00215301
INCLINATION    = 82.9429
RA_OF_ASC_NODE = 241.7744
ARG_OF_PERICENTER = 307.9175
MEAN_ANOMALY   = 162.4784

EPHEMERIS_TYPE = 0
CLASSIFICATION_TYPE = U
NORAD_CAT_ID   = 21088
ELEMENT_SET_NO = 999
REV_AT_EPOCH   = 75079
BSTAR          = .76761033E-4
MEAN_MOTION_DOT = .92E-6
MEAN_MOTION_DDOT = 0

CCSDS_OMM_VERS = 2.0
CREATION_DATE  = 
ORIGINATOR     = 

OBJECT_NAME    = OKEAN-3
OBJECT_ID      = 1991-039A
CENTER_NAME    = EARTH
REF_FRAME      = TEME
TIME_SYSTEM    = UTC
MEAN_ELEMENT_THEORY = SGP/SGP4

EPOCH          = 2025-12-03T07:14:28.011840
MEAN_MOTION    = 15.04017401
ECCENTRICITY   = .00131704
INCLINATION    = 82.5187
RA_OF_ASC_NODE = 70.1817
ARG_OF_PERICENTER = 300.0902
MEAN_ANOMALY   = 59.9018

EPHEMERIS_TYPE = 0
CLASSIFICATION_TYPE = U
NORAD_CAT_ID   = 21397
ELEMENT_SET_NO = 999
REV_AT_EPOCH   = 85054
BSTAR          = .33500699E-3
MEAN_MOTION_DOT = .4664E-4
MEAN_MOTION_DDOT = 0

